[{"OBJECT_NAME":"COSMOS 2440","OBJECT_ID":"2008-033A","EPOCH":"2026-03-02T14:55:52.042368","MEAN_MOTION":1.00277468,"ECCENTRICITY":0.0004907,"INCLINATION":10.3786,"RA_OF_ASC_NODE":41.9589,"ARG_OF_PERICENTER":222.3486,"MEAN_ANOMALY":199.7459,"EPHEMERIS_TYPE":0,"CLASSIFICATION_TYPE":"U","NORAD_CAT_ID":33108,"ELEMENT_SET_NO":999,"REV_AT_EPOCH":6472,"BSTAR":0,"MEAN_MOTION_DOT":-1.56e-6,"MEAN_MOTION_DDOT":0},{"OBJECT_NAME":"SL-12 R/B(2)","OBJECT_ID":"2008-033D","EPOCH":"2026-03-03T00:39:47.246688","MEAN_MOTION":1.00272174,"ECCENTRICITY":0.003129,"INCLINATION":10.3597,"RA_OF_ASC_NODE":42.0905,"ARG_OF_PERICENTER":335.0159,"MEAN_ANOMALY":212.8581,"EPHEMERIS_TYPE":0,"CLASSIFICATION_TYPE":"U","NORAD_CAT_ID":33111,"ELEMENT_SET_NO":999,"REV_AT_EPOCH":6474,"BSTAR":0,"MEAN_MOTION_DOT":3.1e-7,"MEAN_MOTION_DDOT":0},{"OBJECT_NAME":"INTELSAT 25 (IS-25)","OBJECT_ID":"2008-034A","EPOCH":"2026-03-03T03:01:38.453664","MEAN_MOTION":1.00270616,"ECCENTRICITY":0.0003823,"INCLINATION":2.4341,"RA_OF_ASC_NODE":81.6356,"ARG_OF_PERICENTER":241.9936,"MEAN_ANOMALY":211.1633,"EPHEMERIS_TYPE":0,"CLASSIFICATION_TYPE":"U","NORAD_CAT_ID":33153,"ELEMENT_SET_NO":999,"REV_AT_EPOCH":6463,"BSTAR":0,"MEAN_MOTION_DOT":-2.39e-6,"MEAN_MOTION_DDOT":0},{"OBJECT_NAME":"ECHOSTAR 11","OBJECT_ID":"2008-035A","EPOCH":"2026-03-03T03:49:38.807616","MEAN_MOTION":1.00271982,"ECCENTRICITY":0.0002548,"INCLINATION":0.7308,"RA_OF_ASC_NODE":85.511,"ARG_OF_PERICENTER":255.9175,"MEAN_ANOMALY":126.8957,"EPHEMERIS_TYPE":0,"CLASSIFICATION_TYPE":"U","NORAD_CAT_ID":33207,"ELEMENT_SET_NO":999,"REV_AT_EPOCH":5015,"BSTAR":0,"MEAN_MOTION_DOT":-7.2e-7,"MEAN_MOTION_DDOT":0},{"OBJECT_NAME":"SUPERBIRD-C2","OBJECT_ID":"2008-038A","EPOCH":"2026-03-02T23:19:09.975936","MEAN_MOTION":1.00270736,"ECCENTRICITY":9.73e-5,"INCLINATION":2.0873,"RA_OF_ASC_NODE":82.6332,"ARG_OF_PERICENTER":7.5945,"MEAN_ANOMALY":196.3202,"EPHEMERIS_TYPE":0,"CLASSIFICATION_TYPE":"U","NORAD_CAT_ID":33274,"ELEMENT_SET_NO":999,"REV_AT_EPOCH":10466,"BSTAR":0,"MEAN_MOTION_DOT":-3.22e-6,"MEAN_MOTION_DDOT":0},{"OBJECT_NAME":"INMARSAT 4-F3","OBJECT_ID":"2008-039A","EPOCH":"2026-03-03T01:37:49.183104","MEAN_MOTION":1.00271678,"ECCENTRICITY":0.0002743,"INCLINATION":4.2022,"RA_OF_ASC_NODE":31.1855,"ARG_OF_PERICENTER":318.5277,"MEAN_ANOMALY":97.5765,"EPHEMERIS_TYPE":0,"CLASSIFICATION_TYPE":"U","NORAD_CAT_ID":33278,"ELEMENT_SET_NO":999,"REV_AT_EPOCH":4548,"BSTAR":0,"MEAN_MOTION_DOT":-1.53e-6,"MEAN_MOTION_DDOT":0},{"OBJECT_NAME":"NIMIQ 4","OBJECT_ID":"2008-044A","EPOCH":"2026-03-03T03:25:38.777088","MEAN_MOTION":1.00270593,"ECCENTRICITY":0.0002326,"INCLINATION":0.027,"RA_OF_ASC_NODE":102.7452,"ARG_OF_PERICENTER":252.1131,"MEAN_ANOMALY":135.4465,"EPHEMERIS_TYPE":0,"CLASSIFICATION_TYPE":"U","NORAD_CAT_ID":33373,"ELEMENT_SET_NO":999,"REV_AT_EPOCH":6392,"BSTAR":0,"MEAN_MOTION_DOT":-2.36e-6,"MEAN_MOTION_DDOT":0},{"OBJECT_NAME":"GALAXY 19 (G-19)","OBJECT_ID":"2008-045A","EPOCH":"2026-03-03T03:41:38.902272","MEAN_MOTION":1.00271869,"ECCENTRICITY":0.000311,"INCLINATION":0.0526,"RA_OF_ASC_NODE":266.4217,"ARG_OF_PERICENTER":87.2398,"MEAN_ANOMALY":125.6496,"EPHEMERIS_TYPE":0,"CLASSIFICATION_TYPE":"U","NORAD_CAT_ID":33376,"ELEMENT_SET_NO":999,"REV_AT_EPOCH":6384,"BSTAR":0,"MEAN_MOTION_DOT":-1.55e-6,"MEAN_MOTION_DDOT":0},{"OBJECT_NAME":"ASTRA 1M","OBJECT_ID":"2008-057A","EPOCH":"2026-03-03T01:15:38.681856","MEAN_MOTION":1.00273218,"ECCENTRICITY":6.33e-5,"INCLINATION":0.032,"RA_OF_ASC_NODE":58.5261,"ARG_OF_PERICENTER":12.7946,"MEAN_ANOMALY":127.5897,"EPHEMERIS_TYPE":0,"CLASSIFICATION_TYPE":"U","NORAD_CAT_ID":33436,"ELEMENT_SET_NO":999,"REV_AT_EPOCH":4467,"BSTAR":0,"MEAN_MOTION_DOT":1.04e-6,"MEAN_MOTION_DDOT":0},{"OBJECT_NAME":"FENGYUN 2D DEB","OBJECT_ID":"2006-053D","EPOCH":"2026-02-21T11:52:21.573696","MEAN_MOTION":1.00249809,"ECCENTRICITY":0.0038219,"INCLINATION":11.4549,"RA_OF_ASC_NODE":38.1234,"ARG_OF_PERICENTER":346.7634,"MEAN_ANOMALY":12.0826,"EPHEMERIS_TYPE":0,"CLASSIFICATION_TYPE":"U","NORAD_CAT_ID":33458,"ELEMENT_SET_NO":999,"REV_AT_EPOCH":6421,"BSTAR":0,"MEAN_MOTION_DOT":-2.1e-7,"MEAN_MOTION_DDOT":0},{"OBJECT_NAME":"EUTELSAT HOTBIRD 13C","OBJECT_ID":"2008-065A","EPOCH":"2026-03-03T02:53:38.748768","MEAN_MOTION":1.00269375,"ECCENTRICITY":0.0003836,"INCLINATION":2.6779,"RA_OF_ASC_NODE":80.4635,"ARG_OF_PERICENTER":272.5938,"MEAN_ANOMALY":160.9164,"EPHEMERIS_TYPE":0,"CLASSIFICATION_TYPE":"U","NORAD_CAT_ID":33459,"ELEMENT_SET_NO":999,"REV_AT_EPOCH":4628,"BSTAR":0,"MEAN_MOTION_DOT":-2.97e-6,"MEAN_MOTION_DDOT":0},{"OBJECT_NAME":"EXPRESS-AM44","OBJECT_ID":"2009-007A","EPOCH":"2026-03-03T03:45:19.319040","MEAN_MOTION":1.00271752,"ECCENTRICITY":0.000431,"INCLINATION":3.1909,"RA_OF_ASC_NODE":79.7052,"ARG_OF_PERICENTER":255.449,"MEAN_ANOMALY":231.0851,"EPHEMERIS_TYPE":0,"CLASSIFICATION_TYPE":"U","NORAD_CAT_ID":33595,"ELEMENT_SET_NO":999,"REV_AT_EPOCH":5122,"BSTAR":0,"MEAN_MOTION_DOT":-1.04e-6,"MEAN_MOTION_DDOT":0},{"OBJECT_NAME":"NSS-9","OBJECT_ID":"2009-008A","EPOCH":"2026-03-03T00:43:38.659584","MEAN_MOTION":1.00272427,"ECCENTRICITY":0.0002192,"INCLINATION":0.9872,"RA_OF_ASC_NODE":83.7173,"ARG_OF_PERICENTER":250.18,"MEAN_ANOMALY":20.8642,"EPHEMERIS_TYPE":0,"CLASSIFICATION_TYPE":"U","NORAD_CAT_ID":33749,"ELEMENT_SET_NO":999,"REV_AT_EPOCH":6245,"BSTAR":0,"MEAN_MOTION_DOT":5.6e-7,"MEAN_MOTION_DDOT":0},{"OBJECT_NAME":"TELSTAR 11N","OBJECT_ID":"2009-009A","EPOCH":"2026-03-02T20:46:59.096928","MEAN_MOTION":1.00272907,"ECCENTRICITY":0.0002463,"INCLINATION":0.0191,"RA_OF_ASC_NODE":129.6322,"ARG_OF_PERICENTER":198.4214,"MEAN_ANOMALY":106.767,"EPHEMERIS_TYPE":0,"CLASSIFICATION_TYPE":"U","NORAD_CAT_ID":34111,"ELEMENT_SET_NO":999,"REV_AT_EPOCH":4517,"BSTAR":0,"MEAN_MOTION_DOT":-2.67e-6,"MEAN_MOTION_DDOT":0},{"OBJECT_NAME":"RADUGA-1 8","OBJECT_ID":"2009-010A","EPOCH":"2026-03-02T14:55:52.013856","MEAN_MOTION":0.99814803,"ECCENTRICITY":0.0010365,"INCLINATION":11.9067,"RA_OF_ASC_NODE":42.702,"ARG_OF_PERICENTER":19.2581,"MEAN_ANOMALY":41.4616,"EPHEMERIS_TYPE":0,"CLASSIFICATION_TYPE":"U","NORAD_CAT_ID":34264,"ELEMENT_SET_NO":999,"REV_AT_EPOCH":6211,"BSTAR":0,"MEAN_MOTION_DOT":-5.4e-7,"MEAN_MOTION_DDOT":0},{"OBJECT_NAME":"SL-12 R/B(2)","OBJECT_ID":"2009-010B","EPOCH":"2026-03-02T20:40:44.693760","MEAN_MOTION":1.00005301,"ECCENTRICITY":0.0003837,"INCLINATION":11.9008,"RA_OF_ASC_NODE":42.6413,"ARG_OF_PERICENTER":293.7236,"MEAN_ANOMALY":75.1305,"EPHEMERIS_TYPE":0,"CLASSIFICATION_TYPE":"U","NORAD_CAT_ID":34265,"ELEMENT_SET_NO":999,"REV_AT_EPOCH":6213,"BSTAR":0,"MEAN_MOTION_DOT":-2.93e-6,"MEAN_MOTION_DDOT":0},{"OBJECT_NAME":"WGS F2 (USA 204)","OBJECT_ID":"2009-017A","EPOCH":"2026-03-02T15:37:49.250208","MEAN_MOTION":1.00269857,"ECCENTRICITY":6.34e-5,"INCLINATION":0.0276,"RA_OF_ASC_NODE":136.4151,"ARG_OF_PERICENTER":228.9968,"MEAN_ANOMALY":86.9935,"EPHEMERIS_TYPE":0,"CLASSIFICATION_TYPE":"U","NORAD_CAT_ID":34713,"ELEMENT_SET_NO":999,"REV_AT_EPOCH":4454,"BSTAR":0,"MEAN_MOTION_DOT":0,"MEAN_MOTION_DDOT":0}]
